{
"type": "FeatureCollection",
"name": "zonas",
"crs": { "type": "name", "properties": { "name": "urn:ogc:def:crs:OGC:1.3:CRS84" } },
"features": [
{ "type": "Feature", "properties": { "ZG": 3, "Area (ha)": 3.57 }, "geometry": { "type": "MultiPolygon", "coordinates": [ [ [ [ -54.64745840098886, -24.097219502944533 ], [ -54.647412350620186, -24.097040844640624 ], [ -54.646878159321481, -24.096592742842169 ], [ -54.646488344049466, -24.096157819009456 ], [ -54.64627178000945, -24.095775611998125 ], [ -54.646127403982774, -24.095406583456938 ], [ -54.645997465558779, -24.095037553852784 ], [ -54.645881964737427, -24.09474760127523 ], [ -54.645663338178146, -24.09454802300958 ], [ -54.645679838300083, -24.094721241917462 ], [ -54.645723151108079, -24.095103452074344 ], [ -54.645795339121428, -24.095432942673707 ], [ -54.645853089532103, -24.095815150707345 ], [ -54.645853089532103, -24.096118280405985 ], [ -54.645838651929431, -24.096302793784425 ], [ -54.645723151108079, -24.096540024880504 ], [ -54.645622087889414, -24.096790435005296 ], [ -54.645521024670735, -24.096922229611216 ], [ -54.645376648644067, -24.096909050156736 ], [ -54.645102334193396, -24.096803614471987 ], [ -54.644871332550707, -24.096645460782163 ], [ -54.644683643716036, -24.096460947897278 ], [ -54.64464033090804, -24.096434588892031 ], [ -54.644597018100036, -24.09647412739788 ], [ -54.644510392484015, -24.096750896597083 ], [ -54.644510392484015, -24.096922229611216 ], [ -54.64453926768936, -24.097106741831723 ], [ -54.644553705292019, -24.097357150848755 ], [ -54.644394891662692, -24.09759437999233 ], [ -54.644230100837554, -24.09773406445537 ], [ -54.644588844889945, -24.098009836390844 ], [ -54.645213323263839, -24.097693225339061 ], [ -54.645794436771212, -24.097390099367107 ], [ -54.646133720433895, -24.097227004118022 ], [ -54.646267268258562, -24.09718417098788 ], [ -54.646415253685902, -24.097170991560333 ], [ -54.646630013025572, -24.097179228702707 ], [ -54.647064945805937, -24.097208882410861 ], [ -54.64745840098886, -24.097219502944533 ] ] ] ] } },
{ "type": "Feature", "properties": { "ZG": 14, "Area (ha)": 3.38 }, "geometry": { "type": "MultiPolygon", "coordinates": [ [ [ [ -54.644619954582289, -24.098033750878098 ], [ -54.644871332550736, -24.098226988893984 ], [ -54.645131209398748, -24.098332423407193 ], [ -54.64540552384944, -24.098424678535064 ], [ -54.645708713505456, -24.098451037130832 ], [ -54.646228467201489, -24.098490575014303 ], [ -54.646574969665508, -24.098424678535064 ], [ -54.646834846513514, -24.098332423407193 ], [ -54.647340162606866, -24.098082016296605 ], [ -54.647758853084234, -24.0978843261267 ], [ -54.648105355548253, -24.097686635651691 ], [ -54.648307481985597, -24.097502124266434 ], [ -54.64848073321761, -24.097251715532803 ], [ -54.648484499892788, -24.097246271356767 ], [ -54.648321017238032, -24.097255010387681 ], [ -54.648064749790684, -24.097257481528825 ], [ -54.647581090101333, -24.097250068105243 ], [ -54.647386182465318, -24.097250891819005 ], [ -54.647052312903632, -24.097238536112155 ], [ -54.646732880944619, -24.097222061834501 ], [ -54.646479320547776, -24.097201468984476 ], [ -54.646403523133756, -24.097205587554743 ], [ -54.646320506918407, -24.09721300098089 ], [ -54.646220346049915, -24.097229475259699 ], [ -54.646079579423912, -24.097285487791815 ], [ -54.645920765794578, -24.097371153970052 ], [ -54.645514708219565, -24.097570492355324 ], [ -54.644848773796525, -24.097920569347298 ], [ -54.644619954582289, -24.098033750878098 ] ] ] ] } },
{ "type": "Feature", "properties": { "ZG": 21, "Area (ha)": 5.89 }, "geometry": { "type": "MultiPolygon", "coordinates": [ [ [ [ -54.648112541023757, -24.100285563010324 ], [ -54.647874353905529, -24.100559707217915 ], [ -54.647354600209503, -24.101100048340168 ], [ -54.647152473772167, -24.101350449550683 ], [ -54.64669047048681, -24.101706282007719 ], [ -54.646358405625463, -24.101890787336973 ], [ -54.645939715148103, -24.102088471323363 ], [ -54.645477711862739, -24.102246618292792 ], [ -54.644842457345376, -24.102457480614898 ], [ -54.64453926768936, -24.102721058029349 ], [ -54.644192765225327, -24.103010992558684 ], [ -54.643961763582652, -24.103208674816006 ], [ -54.643586385913295, -24.10343271433873 ], [ -54.643239883449276, -24.103498608241416 ], [ -54.642691254547913, -24.103590859648218 ], [ -54.642681196184299, -24.103591384297346 ], [ -54.64283472822418, -24.103688876694989 ], [ -54.64295835019702, -24.103765478200447 ], [ -54.643279586856366, -24.103899736642468 ], [ -54.64381287580489, -24.104080944132448 ], [ -54.6439915411379, -24.104142719354506 ], [ -54.644143135965905, -24.104178137135055 ], [ -54.644204495777245, -24.104180608142638 ], [ -54.644273976740088, -24.104178137135055 ], [ -54.644430985669089, -24.104136953668377 ], [ -54.644530244187415, -24.104089180830442 ], [ -54.644669206113093, -24.103998577123338 ], [ -54.644789218685247, -24.10388408689267 ], [ -54.644816289190253, -24.103858553086265 ], [ -54.644930887661431, -24.103777009605899 ], [ -54.645195276260282, -24.103574386187464 ], [ -54.645387476845784, -24.103405533093863 ], [ -54.645556216326966, -24.103284452933597 ], [ -54.645832335477984, -24.103064531533366 ], [ -54.646006489060142, -24.102917093379446 ], [ -54.646349382123496, -24.102660105800346 ], [ -54.646769877301175, -24.102319102255048 ], [ -54.64686552641885, -24.102258149834878 ], [ -54.647293240397858, -24.101905613646412 ], [ -54.647325725003867, -24.101871018921422 ], [ -54.647365428411206, -24.101828187344214 ], [ -54.647401522417866, -24.101788650490988 ], [ -54.647432202323536, -24.101770529429182 ], [ -54.647518827939528, -24.101737582037515 ], [ -54.647939323117221, -24.101409755028726 ], [ -54.647966393622227, -24.101383397041822 ], [ -54.6479916594269, -24.101350449550562 ], [ -54.648024144032895, -24.10131091254987 ], [ -54.648049409837576, -24.101282907166986 ], [ -54.648085503844236, -24.101258196529951 ], [ -54.648137840153893, -24.101241722769281 ], [ -54.648186567062915, -24.101217012124312 ], [ -54.648383279399269, -24.101050626990656 ], [ -54.648540288328292, -24.100935310434565 ], [ -54.64862871864463, -24.100844704496229 ], [ -54.648652179748964, -24.100813404248093 ], [ -54.648691883156296, -24.100777161845961 ], [ -54.648787532273957, -24.100724445606367 ], [ -54.648962588206302, -24.100600891834794 ], [ -54.649150277040988, -24.100449332378908 ], [ -54.64927745744243, -24.100329280341654 ], [ -54.649087112529593, -24.100282946248107 ], [ -54.64849517082024, -24.10024340891788 ], [ -54.648112541023757, -24.100285563010324 ] ] ] ] } },
{ "type": "Feature", "properties": { "ZG": 4, "Area (ha)": 3.6 }, "geometry": { "type": "MultiPolygon", "coordinates": [ [ [ [ -54.644569811635002, -24.094909715905843 ], [ -54.644553705292068, -24.095037141988772 ], [ -54.644503173682729, -24.095531377825868 ], [ -54.644488736080056, -24.096137637848781 ], [ -54.644503173682729, -24.096269433126295 ], [ -54.644517611285401, -24.09638145900557 ], [ -54.644532048888074, -24.096473715538469 ], [ -54.644567649416601, -24.096567960462146 ], [ -54.644597018100036, -24.09647412739788 ], [ -54.64464033090804, -24.096434588892031 ], [ -54.644683643716036, -24.096460947897278 ], [ -54.644871332550707, -24.096645460782163 ], [ -54.645102334193396, -24.096803614471987 ], [ -54.645376648644067, -24.096909050156736 ], [ -54.645521024670735, -24.096922229611216 ], [ -54.645622087889414, -24.096790435005296 ], [ -54.645723151108079, -24.096540024880504 ], [ -54.645838651929431, -24.096302793784425 ], [ -54.645853089532103, -24.096118280405985 ], [ -54.645853089532103, -24.095815150707345 ], [ -54.645795339121428, -24.095432942673707 ], [ -54.645723151108079, -24.095103452074344 ], [ -54.645679838300083, -24.094721241917462 ], [ -54.645650963094759, -24.094418108913288 ], [ -54.645521024670735, -24.094088615703974 ], [ -54.645376648644067, -24.093825020526424 ], [ -54.645203397412068, -24.093482345984853 ], [ -54.645127428116545, -24.093348978702505 ], [ -54.645145647001392, -24.093515295499824 ], [ -54.645059021385393, -24.09384479018356 ], [ -54.644943520564048, -24.094121565063045 ], [ -54.64488577015338, -24.094332440760382 ], [ -54.644726956524039, -24.094661933342636 ], [ -54.644569811635002, -24.094909715905843 ] ] ] ] } },
{ "type": "Feature", "properties": { "ZG": 16, "Area (ha)": 5.22 }, "geometry": { "type": "MultiPolygon", "coordinates": [ [ [ [ -54.645650963054671, -24.100586065374326 ], [ -54.646055215969426, -24.100586065374326 ], [ -54.646531656857462, -24.100559707217915 ], [ -54.646878159321474, -24.100506990888814 ], [ -54.647181348977497, -24.100454274538027 ], [ -54.647657789865526, -24.100335662669416 ], [ -54.64849517082024, -24.10024340891788 ], [ -54.649087112529593, -24.100282946248107 ], [ -54.64927745744243, -24.100329280341654 ], [ -54.649309090670336, -24.100299420131964 ], [ -54.649383083384002, -24.100246703695753 ], [ -54.649789140959022, -24.099935346801796 ], [ -54.64981801616436, -24.0999056937248 ], [ -54.649859524272024, -24.099862861490355 ], [ -54.64989200887802, -24.099816734452631 ], [ -54.649955173389699, -24.099772254793393 ], [ -54.650054431908032, -24.099712948557009 ], [ -54.650137448123381, -24.099623989150977 ], [ -54.650225878439706, -24.099482312932349 ], [ -54.650267386547377, -24.099348873559858 ], [ -54.650236706641707, -24.0991511853451 ], [ -54.650151885726032, -24.098790403566674 ], [ -54.650106505379036, -24.09858327767245 ], [ -54.647600039454908, -24.099228613265673 ], [ -54.646733783294856, -24.099729422514429 ], [ -54.646199591996151, -24.100085259474952 ], [ -54.645910839942808, -24.100348841771336 ], [ -54.645650963054671, -24.100586065374326 ] ] ] ] } },
{ "type": "Feature", "properties": { "ZG": 17, "Area (ha)": 4.66 }, "geometry": { "type": "MultiPolygon", "coordinates": [ [ [ [ -54.644887173043053, -24.098233415532636 ], [ -54.644755831729384, -24.098378550979451 ], [ -54.644597018100043, -24.098549881816634 ], [ -54.644582580497385, -24.098826646531087 ], [ -54.644726956524053, -24.099077052186022 ], [ -54.644957958166735, -24.099235202873789 ], [ -54.645246710220071, -24.099248382088952 ], [ -54.645448836657415, -24.099156127554313 ], [ -54.645665400697432, -24.099050693719089 ], [ -54.645867527134783, -24.099011156008508 ], [ -54.646127403982796, -24.099024335246725 ], [ -54.646286217612136, -24.099222023657251 ], [ -54.64635840562547, -24.099446070153704 ], [ -54.646488344049466, -24.099670116258249 ], [ -54.646611630304818, -24.099810791396322 ], [ -54.646733783294856, -24.099729422514429 ], [ -54.647600039454908, -24.099228613265673 ], [ -54.649562240721316, -24.098723408584416 ], [ -54.649505803006981, -24.098628957510368 ], [ -54.649231488556296, -24.098404909584712 ], [ -54.648856110886932, -24.098259937188693 ], [ -54.648365232396245, -24.098246757871827 ], [ -54.647989854726902, -24.098246757871827 ], [ -54.647787728289558, -24.098246757871827 ], [ -54.647571164249534, -24.098207219913114 ], [ -54.64745566342819, -24.098141323288107 ], [ -54.647385095257206, -24.098060800759686 ], [ -54.647340162606866, -24.098082016296605 ], [ -54.646834846513514, -24.098332423407193 ], [ -54.646574969665508, -24.098424678535064 ], [ -54.646228467201489, -24.098490575014303 ], [ -54.645708713505456, -24.098451037130832 ], [ -54.64540552384944, -24.098424678535064 ], [ -54.645131209398748, -24.098332423407193 ], [ -54.644887173043053, -24.098233415532636 ] ] ] ] } },
{ "type": "Feature", "properties": { "ZG": 22, "Area (ha)": 3.83 }, "geometry": { "type": "MultiPolygon", "coordinates": [ [ [ [ -54.646076694910228, -24.102023796565049 ], [ -54.645419961452092, -24.102079822655277 ], [ -54.644871332550736, -24.101994159626187 ], [ -54.644402110464043, -24.101934854418641 ], [ -54.644315271786908, -24.101907787247701 ], [ -54.64407726440399, -24.101969860968143 ], [ -54.643586385913295, -24.102101650244943 ], [ -54.6431821330386, -24.102207081568736 ], [ -54.642777880163926, -24.102325691704269 ], [ -54.642402502494569, -24.102404765066925 ], [ -54.641998249619881, -24.102536553896201 ], [ -54.64181056078521, -24.102694700312313 ], [ -54.641752810374534, -24.102918740734172 ], [ -54.641797263317336, -24.103050616590178 ], [ -54.641871018246135, -24.103068649915127 ], [ -54.641957643862135, -24.103119717837838 ], [ -54.642156160898828, -24.103215264219191 ], [ -54.642465667006, -24.103431890664606 ], [ -54.642647941739675, -24.103570267821976 ], [ -54.642681196184299, -24.103591384297346 ], [ -54.642691254547913, -24.103590859648218 ], [ -54.643239883449276, -24.103498608241416 ], [ -54.643586385913295, -24.10343271433873 ], [ -54.643961763582652, -24.103208674816006 ], [ -54.644192765225327, -24.103010992558684 ], [ -54.64453926768936, -24.102721058029349 ], [ -54.644842457345376, -24.102457480614898 ], [ -54.645477711862739, -24.102246618292792 ], [ -54.645939715148103, -24.102088471323363 ], [ -54.646076694910228, -24.102023796565049 ] ] ] ] } },
{ "type": "Feature", "properties": { "ZG": 30, "Area (ha)": 1.97 }, "geometry": { "type": "MultiPolygon", "coordinates": [ [ [ [ -54.639640549136161, -24.096177223418334 ], [ -54.639644920385066, -24.096217126891762 ], [ -54.639717108398415, -24.096572973609085 ], [ -54.639760421206411, -24.096902460428968 ], [ -54.639760421206411, -24.097337381733617 ], [ -54.639803734014407, -24.097983171249815 ], [ -54.639919234835759, -24.098325833752671 ], [ -54.640005860451751, -24.098523523241219 ], [ -54.640164674081099, -24.098642136787905 ], [ -54.640222424491775, -24.098628957510368 ], [ -54.640294612505102, -24.098483985367913 ], [ -54.640323487710447, -24.098220399234044 ], [ -54.640366800518443, -24.097969991904474 ], [ -54.640381238121115, -24.097759122194638 ], [ -54.640438988531777, -24.09752189335617 ], [ -54.640496738942446, -24.097416458175825 ], [ -54.640554489353121, -24.097324202321843 ], [ -54.640713302982462, -24.097152869845313 ], [ -54.640754725636022, -24.097115056971536 ], [ -54.640568926955844, -24.096671819744014 ], [ -54.6402801749025, -24.096170998541208 ], [ -54.640159225952068, -24.095762482110935 ], [ -54.640150236478455, -24.095775611998125 ], [ -54.639875922027763, -24.096026023617107 ], [ -54.639640549136161, -24.096177223418334 ] ] ] ] } },
{ "type": "Feature", "properties": { "ZG": 28, "Area (ha)": 3.67 }, "geometry": { "type": "MultiPolygon", "coordinates": [ [ [ [ -54.639375828319544, -24.096371805149499 ], [ -54.639370605934403, -24.096348922087504 ], [ -54.63927676151706, -24.096177588306603 ], [ -54.639060197477043, -24.095986484972972 ], [ -54.638914919100081, -24.095925859017598 ], [ -54.638914919100081, -24.0959708342562 ], [ -54.638880629793739, -24.09608780272405 ], [ -54.638857168689405, -24.096128988778865 ], [ -54.638833707585071, -24.096152052963777 ], [ -54.638806637080073, -24.096176764585849 ], [ -54.6386947456594, -24.096244309661898 ], [ -54.638676698656049, -24.096250899423502 ], [ -54.638647823450725, -24.096262431505508 ], [ -54.63862075294572, -24.096269021266199 ], [ -54.638591877740389, -24.096273963586476 ], [ -54.638543150831381, -24.096288790546186 ], [ -54.638460134616039, -24.096321739339395 ], [ -54.638431259410702, -24.096339861172055 ], [ -54.638411407707039, -24.096354688124137 ], [ -54.638350047895699, -24.096382694584509 ], [ -54.638310344488367, -24.096425527982625 ], [ -54.638292297485044, -24.09647989342886 ], [ -54.63828868808438, -24.096504604987704 ], [ -54.638281469283037, -24.096522726794497 ], [ -54.638267031680371, -24.096577092199482 ], [ -54.638283273983362, -24.09666605372151 ], [ -54.638348243195374, -24.096766547218369 ], [ -54.638372606649888, -24.096851390027304 ], [ -54.638367192548884, -24.096866216920194 ], [ -54.638358169047216, -24.096885986108031 ], [ -54.638333805592701, -24.096922229611135 ], [ -54.638308539788049, -24.096954354525781 ], [ -54.638278762232538, -24.096985655716914 ], [ -54.63827494818625, -24.096987744721034 ], [ -54.638302223337021, -24.097093562396207 ], [ -54.638258910529018, -24.097291253786455 ], [ -54.638157847310353, -24.097502124266462 ], [ -54.638071221694332, -24.097752532510626 ], [ -54.638071221694332, -24.09795022288392 ], [ -54.638186722515677, -24.098200630252133 ], [ -54.638345536145025, -24.098530112885591 ], [ -54.638590975390365, -24.098991387148647 ], [ -54.638821977033039, -24.09949219732491 ], [ -54.639247886311715, -24.099933699408943 ], [ -54.639393432220764, -24.099975972830535 ], [ -54.639423844594198, -24.099971589442188 ], [ -54.639461743301197, -24.099963352479385 ], [ -54.639492423206867, -24.099958410301436 ], [ -54.639589877024875, -24.099933699408883 ], [ -54.641020149379685, -24.099617975100784 ], [ -54.640771053393159, -24.09947901813484 ], [ -54.640438988531791, -24.099320867748112 ], [ -54.640135798875782, -24.099096821032678 ], [ -54.639976985246449, -24.09891231167866 ], [ -54.639803734014443, -24.098740981326241 ], [ -54.639601607577099, -24.098622367871084 ], [ -54.639442793947751, -24.098622367871084 ], [ -54.639413918742399, -24.098820056901992 ], [ -54.639399481139748, -24.099070462569813 ], [ -54.639298417921076, -24.099189075610035 ], [ -54.639168479497073, -24.099017745627787 ], [ -54.638937477854384, -24.098727802058864 ], [ -54.63873535141704, -24.098345602715259 ], [ -54.63864872580104, -24.097989760921969 ], [ -54.638634288198368, -24.09740986847418 ], [ -54.638720913814367, -24.097067203521139 ], [ -54.638937477854384, -24.096790435005296 ], [ -54.639211792305055, -24.096513665891507 ], [ -54.639375828319544, -24.096371805149499 ] ] ] ] } },
{ "type": "Feature", "properties": { "ZG": 26, "Area (ha)": 2.49 }, "geometry": { "type": "MultiPolygon", "coordinates": [ [ [ [ -54.638464289773829, -24.100615746261578 ], [ -54.638569318986363, -24.100454274538027 ], [ -54.638713695013031, -24.100322483566117 ], [ -54.638858071039721, -24.100269767139395 ], [ -54.63887011123267, -24.100267324766591 ], [ -54.638821977033032, -24.100177513340402 ], [ -54.638417724158344, -24.099795318322471 ], [ -54.637681406422296, -24.099241792481536 ], [ -54.637262715944949, -24.098424678535093 ], [ -54.637190527931608, -24.098002940265268 ], [ -54.637204965534266, -24.097647097520106 ], [ -54.63717444828508, -24.097493879998041 ], [ -54.637139093971967, -24.097514479947808 ], [ -54.637106609365965, -24.097530130475899 ], [ -54.637099390564622, -24.097534249035608 ], [ -54.637096683514109, -24.097580376895245 ], [ -54.637082245911451, -24.097605088241814 ], [ -54.637051566005781, -24.097601793395871 ], [ -54.637011862598435, -24.09759190885757 ], [ -54.636986596793776, -24.097575434625377 ], [ -54.636981182692786, -24.097565550085047 ], [ -54.636937869884768, -24.097583671741738 ], [ -54.636908994679445, -24.097590261434465 ], [ -54.63685665836978, -24.09760014597288 ], [ -54.636820564363099, -24.097610030510562 ], [ -54.636797103258758, -24.097619915047467 ], [ -54.636757399851433, -24.097641331541467 ], [ -54.636723110545091, -24.097659453187443 ], [ -54.636645508430753, -24.097715465531572 ], [ -54.63660219562275, -24.097741824273271 ], [ -54.636567906316415, -24.097781362375642 ], [ -54.636546249912428, -24.097811015944412 ], [ -54.636535421710427, -24.097829137566393 ], [ -54.636519179407422, -24.097855496284691 ], [ -54.636506546505089, -24.097868675641823 ], [ -54.636452405495085, -24.097886797255637 ], [ -54.636342318774737, -24.098038359743583 ], [ -54.636317052970078, -24.098186627221352 ], [ -54.636299005966741, -24.098239344505409 ], [ -54.636311638869067, -24.098399143640165 ], [ -54.636344123475084, -24.098567179628716 ], [ -54.636432553791401, -24.098806053938901 ], [ -54.636524593508419, -24.098890071693827 ], [ -54.636730329346449, -24.099008684901094 ], [ -54.637168871527479, -24.099287096025549 ], [ -54.637213989035807, -24.099361229063181 ], [ -54.63723925484048, -24.099387587466225 ], [ -54.637291591150152, -24.099410651064424 ], [ -54.637380021466484, -24.099451836050921 ], [ -54.637401677870493, -24.099471604839707 ], [ -54.637430553075824, -24.099519379400057 ], [ -54.637454014180157, -24.099570448737964 ], [ -54.637509959890487, -24.099624812849509 ], [ -54.637560491499819, -24.09965446599152 ], [ -54.637618241910495, -24.099684119126678 ], [ -54.637641703014829, -24.099728598816537 ], [ -54.637657945317827, -24.099766488910522 ], [ -54.6376832111225, -24.099817558149901 ], [ -54.63773735213249, -24.099850506035473 ], [ -54.637766227337835, -24.099868627368924 ], [ -54.63779329784284, -24.099896633061043 ], [ -54.637829391849493, -24.099939465284177 ], [ -54.637860071755163, -24.099995476631303 ], [ -54.638000838381174, -24.100150331404699 ], [ -54.638439380562197, -24.100590183835664 ], [ -54.638464289773829, -24.100615746261578 ] ] ] ] } },
{ "type": "Feature", "properties": { "ZG": 27, "Area (ha)": 3.28 }, "geometry": { "type": "MultiPolygon", "coordinates": [ [ [ [ -54.63887011123267, -24.100267324766591 ], [ -54.638988009463716, -24.10024340891788 ], [ -54.63903132227172, -24.100230229805106 ], [ -54.639361501298225, -24.100022368792438 ], [ -54.639349851880539, -24.100017716424144 ], [ -54.639342633079202, -24.100002889896043 ], [ -54.639342633079202, -24.099983121189236 ], [ -54.639355265981536, -24.099973236834686 ], [ -54.639376922385544, -24.099976531619625 ], [ -54.639389555287877, -24.099976531619625 ], [ -54.639393432220764, -24.099975972830535 ], [ -54.639247886311715, -24.099933699408943 ], [ -54.638821977033039, -24.09949219732491 ], [ -54.638590975390365, -24.098991387148647 ], [ -54.638345536145025, -24.098530112885591 ], [ -54.638186722515677, -24.098200630252133 ], [ -54.638071221694332, -24.09795022288392 ], [ -54.638071221694332, -24.097752532510626 ], [ -54.638157847310353, -24.097502124266462 ], [ -54.638258910529018, -24.097291253786455 ], [ -54.638302223337021, -24.097093562396207 ], [ -54.63827494818625, -24.096987744721034 ], [ -54.638251691727532, -24.09700048259425 ], [ -54.638219207121544, -24.097013662039341 ], [ -54.638187624865708, -24.097018604330906 ], [ -54.638135288556029, -24.097020251761364 ], [ -54.638097389849037, -24.097016133185143 ], [ -54.638048662940022, -24.09700460117099 ], [ -54.638021592435031, -24.096990598009555 ], [ -54.637993619579866, -24.096975771131071 ], [ -54.637950306771863, -24.096946117368962 ], [ -54.637887142260197, -24.096880220095219 ], [ -54.637829534950285, -24.096848667768501 ], [ -54.637805930745166, -24.096835739416299 ], [ -54.637773446139171, -24.096831620834141 ], [ -54.637720207479326, -24.096830797117683 ], [ -54.637699453425498, -24.096832444550579 ], [ -54.637648019465985, -24.096841505431115 ], [ -54.637581245553648, -24.096874454082165 ], [ -54.637492815237323, -24.096950235947432 ], [ -54.637458525930974, -24.096993892871208 ], [ -54.637450404779493, -24.097058966371485 ], [ -54.637419724873823, -24.097149574987672 ], [ -54.637342122759478, -24.097393394218486 ], [ -54.637329489857152, -24.097414810750365 ], [ -54.63729971230164, -24.097443640691484 ], [ -54.637274446496967, -24.097449406678933 ], [ -54.637241961890972, -24.097447759253981 ], [ -54.637228426638465, -24.097454348953679 ], [ -54.637204063183958, -24.097474118050755 ], [ -54.637181504429812, -24.097489768583785 ], [ -54.63717444828508, -24.097493879998041 ], [ -54.637204965534266, -24.097647097520106 ], [ -54.637190527931608, -24.098002940265268 ], [ -54.637262715944949, -24.098424678535093 ], [ -54.637681406422296, -24.099241792481536 ], [ -54.638417724158344, -24.099795318322471 ], [ -54.638821977033032, -24.100177513340402 ], [ -54.63887011123267, -24.100267324766591 ] ] ] ] } },
{ "type": "Feature", "properties": { "ZG": 1, "Area (ha)": 3.25 }, "geometry": { "type": "MultiPolygon", "coordinates": [ [ [ [ -54.642464736504124, -24.091644922430572 ], [ -54.642474690507918, -24.091683289605605 ], [ -54.642561316123917, -24.091986429080077 ], [ -54.642647941739938, -24.092131408575224 ], [ -54.642806755369278, -24.092368647395254 ], [ -54.642980006601277, -24.092526806364596 ], [ -54.643312071462645, -24.092724504801719 ], [ -54.64341313468131, -24.092764044452547 ], [ -54.643456447489314, -24.092764044452547 ], [ -54.643528635502648, -24.092711324915406 ], [ -54.643629698721313, -24.092619065673219 ], [ -54.643745199542657, -24.092447726904339 ], [ -54.644019513993335, -24.092421367073399 ], [ -54.644351578854703, -24.092592705877522 ], [ -54.644452642073368, -24.092816763967981 ], [ -54.644470219797533, -24.092917054133409 ], [ -54.644755831729412, -24.092559756125272 ], [ -54.644918619937691, -24.092401860762124 ], [ -54.644511294834096, -24.09184639191189 ], [ -54.643926571926045, -24.091109958638636 ], [ -54.643776781798366, -24.090955092937428 ], [ -54.643587288263369, -24.0907886944754 ], [ -54.643423060533031, -24.090740916659236 ], [ -54.64338155242536, -24.090740916659236 ], [ -54.643345458418693, -24.090755744259269 ], [ -54.643323802014685, -24.090791989496527 ], [ -54.643284098607353, -24.090848004843064 ], [ -54.643244395200028, -24.090894135110066 ], [ -54.643145136681667, -24.090927909045025 ], [ -54.643100921523519, -24.090965801741927 ], [ -54.643100921523519, -24.090989690610296 ], [ -54.643100019173353, -24.091025112027626 ], [ -54.643090995671692, -24.091044882116762 ], [ -54.643074753368694, -24.091068770970402 ], [ -54.643063925166686, -24.091078656011977 ], [ -54.643022417059008, -24.091116548664317 ], [ -54.642993541853691, -24.091133023727043 ], [ -54.64295022904566, -24.091167621351889 ], [ -54.642926767941333, -24.091189038924504 ], [ -54.642899697436327, -24.091212103998693 ], [ -54.64288345513333, -24.091223636534224 ], [ -54.642818485921325, -24.091273061674769 ], [ -54.642795024816984, -24.091284594204819 ], [ -54.642775173113321, -24.091294479229752 ], [ -54.642758930810317, -24.091312601773481 ], [ -54.642728250904646, -24.091353789363325 ], [ -54.642693961598312, -24.09138509192276 ], [ -54.642666891093313, -24.091401566950974 ], [ -54.642639820588307, -24.091422984484471 ], [ -54.642618164184299, -24.09144769701868 ], [ -54.642589288978968, -24.091490532066693 ], [ -54.642569437275306, -24.091525129595009 ], [ -54.642547780871297, -24.091554784611851 ], [ -54.642531538568299, -24.091572907118763 ], [ -54.642508077463965, -24.091595972123852 ], [ -54.642488225760303, -24.091615742124912 ], [ -54.642470178756959, -24.091637159622614 ], [ -54.642464736504124, -24.091644922430572 ] ] ] ] } },
{ "type": "Feature", "properties": { "ZG": 12, "Area (ha)": 3.99 }, "geometry": { "type": "MultiPolygon", "coordinates": [ [ [ [ -54.643440177513149, -24.095808170073923 ], [ -54.642907818587936, -24.09579538135425 ], [ -54.642691254547934, -24.095782201783848 ], [ -54.642416940097249, -24.095900817868795 ], [ -54.642258126467901, -24.096019433843932 ], [ -54.642171500851902, -24.096124870174073 ], [ -54.642128188043905, -24.096203947364721 ], [ -54.642099312838575, -24.096296204025471 ], [ -54.642099312838575, -24.096493896646205 ], [ -54.642243688865243, -24.096625691557207 ], [ -54.642460252905245, -24.09670476843873 ], [ -54.642604628931934, -24.096757486332628 ], [ -54.642792317766613, -24.096955178241515 ], [ -54.642893380985278, -24.097205587554811 ], [ -54.642922256190616, -24.097390099367182 ], [ -54.642922256190616, -24.097561431526412 ], [ -54.642922256190616, -24.097719584085411 ], [ -54.642907818587936, -24.0978381983765 ], [ -54.64285006817726, -24.097983171249815 ], [ -54.642763442561268, -24.098220399234044 ], [ -54.642647941739931, -24.098483985367913 ], [ -54.642546878521266, -24.098787108751349 ], [ -54.642537380934073, -24.09898651401398 ], [ -54.643877845017087, -24.098370313914124 ], [ -54.644588844889945, -24.098009836390844 ], [ -54.644048389198709, -24.097594379992284 ], [ -54.643528635502662, -24.096526845386645 ], [ -54.643440177513149, -24.095808170073923 ] ] ] ] } },
{ "type": "Feature", "properties": { "ZG": 10, "Area (ha)": 4.07 }, "geometry": { "type": "MultiPolygon", "coordinates": [ [ [ [ -54.641940499209234, -24.098444447482422 ], [ -54.642142625646606, -24.098897073170999 ], [ -54.642269144105128, -24.099109820235217 ], [ -54.642537380934073, -24.09898651401398 ], [ -54.642546878521266, -24.098787108751349 ], [ -54.642647941739931, -24.098483985367913 ], [ -54.642763442561268, -24.098220399234044 ], [ -54.64285006817726, -24.097983171249815 ], [ -54.642907818587936, -24.0978381983765 ], [ -54.642922256190616, -24.097719584085411 ], [ -54.642922256190616, -24.097561431526412 ], [ -54.642922256190616, -24.097390099367182 ], [ -54.642893380985278, -24.097205587554811 ], [ -54.642792317766613, -24.096955178241515 ], [ -54.642604628931934, -24.096757486332628 ], [ -54.642460252905245, -24.09670476843873 ], [ -54.642243688865243, -24.096625691557207 ], [ -54.642099312838575, -24.096493896646205 ], [ -54.642099312838575, -24.096296204025471 ], [ -54.642128188043905, -24.096203947364721 ], [ -54.642171500851902, -24.096124870174073 ], [ -54.642258126467901, -24.096019433843932 ], [ -54.642416940097249, -24.095900817868795 ], [ -54.642691254547934, -24.095782201783848 ], [ -54.642907818587936, -24.09579538135425 ], [ -54.643440177513149, -24.095808170073923 ], [ -54.643389062716231, -24.095392888844234 ], [ -54.643326509065304, -24.095386814040811 ], [ -54.643109945025301, -24.095281377103234 ], [ -54.642936693793281, -24.095123221534191 ], [ -54.642821192971937, -24.094925526798324 ], [ -54.642734567355937, -24.09472783175741 ], [ -54.642691254547941, -24.094490597305619 ], [ -54.642679158185253, -24.094469616633564 ], [ -54.642359189686601, -24.094563085656926 ], [ -54.642326937172925, -24.094566860328566 ], [ -54.642157063249279, -24.095042084356599 ], [ -54.641882748798608, -24.096155759707482 ], [ -54.641723935169267, -24.09707173395315 ], [ -54.641705619234351, -24.097485547790757 ], [ -54.641781685579886, -24.097825019016259 ], [ -54.641940499209234, -24.098444447482422 ] ] ] ] } },
{ "type": "Feature", "properties": { "ZG": 15, "Area (ha)": 3.04 }, "geometry": { "type": "MultiPolygon", "coordinates": [ [ [ [ -54.647385095257206, -24.098060800759686 ], [ -54.64745566342819, -24.098141323288107 ], [ -54.647571164249534, -24.098207219913114 ], [ -54.647787728289558, -24.098246757871827 ], [ -54.647989854726902, -24.098246757871827 ], [ -54.648365232396245, -24.098246757871827 ], [ -54.648856110886932, -24.098259937188693 ], [ -54.649231488556296, -24.098404909584712 ], [ -54.649505803006981, -24.098628957510368 ], [ -54.649562240721316, -24.098723408584416 ], [ -54.650106505379036, -24.09858327767245 ], [ -54.650076088312034, -24.098444447482294 ], [ -54.649805383262013, -24.097306080628311 ], [ -54.649722367046664, -24.096978242277551 ], [ -54.649626717929003, -24.096630633863604 ], [ -54.649557540780343, -24.096517319831705 ], [ -54.649419177390961, -24.096647931935014 ], [ -54.649275703714451, -24.096779726687537 ], [ -54.649025752718281, -24.097011190893497 ], [ -54.648867841439071, -24.097116626407388 ], [ -54.648700906658277, -24.097197350414088 ], [ -54.648521338975051, -24.097244302108841 ], [ -54.648511668843192, -24.097244819029619 ], [ -54.648484499892788, -24.097246271356767 ], [ -54.64848073321761, -24.097251715532803 ], [ -54.648307481985597, -24.097502124266434 ], [ -54.648105355548253, -24.097686635651691 ], [ -54.647758853084234, -24.0978843261267 ], [ -54.647385095257206, -24.098060800759686 ] ] ] ] } },
{ "type": "Feature", "properties": { "ZG": 5, "Area (ha)": 2.66 }, "geometry": { "type": "MultiPolygon", "coordinates": [ [ [ [ -54.643437669935196, -24.09518465019978 ], [ -54.643673011529309, -24.095268197479946 ], [ -54.643889575569325, -24.095307736345774 ], [ -54.644308266046671, -24.095334095582878 ], [ -54.644351578854675, -24.095307736345774 ], [ -54.644423766868016, -24.095136401172404 ], [ -54.644568142894691, -24.094912347138415 ], [ -54.644726956524039, -24.094661933342636 ], [ -54.64488577015338, -24.094332440760382 ], [ -54.644943520564048, -24.094121565063045 ], [ -54.645059021385393, -24.09384479018356 ], [ -54.645145647001392, -24.093515295499824 ], [ -54.645127428116545, -24.093348978702505 ], [ -54.645015708577382, -24.093152850369055 ], [ -54.64488577015338, -24.092994692172489 ], [ -54.644596579251655, -24.092758979570593 ], [ -54.644366016457397, -24.093047411593009 ], [ -54.643629698721341, -24.094576265352746 ], [ -54.643437669935196, -24.09518465019978 ] ] ] ] } },
{ "type": "Feature", "properties": { "ZG": 29, "Area (ha)": 5.33 }, "geometry": { "type": "MultiPolygon", "coordinates": [ [ [ [ -54.640754725636022, -24.097115056971536 ], [ -54.640713302982462, -24.097152869845313 ], [ -54.640554489353121, -24.097324202321843 ], [ -54.640496738942446, -24.097416458175825 ], [ -54.640438988531777, -24.09752189335617 ], [ -54.640381238121115, -24.097759122194638 ], [ -54.640366800518443, -24.097969991904474 ], [ -54.640323487710447, -24.098220399234044 ], [ -54.640294612505102, -24.098483985367913 ], [ -54.640222424491775, -24.098628957510368 ], [ -54.640164674081099, -24.098642136787905 ], [ -54.640005860451751, -24.098523523241219 ], [ -54.639919234835759, -24.098325833752671 ], [ -54.639803734014407, -24.097983171249815 ], [ -54.639760421206411, -24.097337381733617 ], [ -54.639760421206411, -24.096902460428968 ], [ -54.639717108398415, -24.096572973609085 ], [ -54.639644920385066, -24.096217126891762 ], [ -54.639640549136161, -24.096177223418334 ], [ -54.639486106755754, -24.096276434746621 ], [ -54.639211792305055, -24.096513665891507 ], [ -54.638937477854384, -24.096790435005296 ], [ -54.638720913814367, -24.097067203521139 ], [ -54.638634288198368, -24.09740986847418 ], [ -54.63864872580104, -24.097989760921969 ], [ -54.63873535141704, -24.098345602715259 ], [ -54.638937477854384, -24.098727802058864 ], [ -54.639168479497073, -24.099017745627787 ], [ -54.639298417921076, -24.099189075610035 ], [ -54.639399481139748, -24.099070462569813 ], [ -54.639413918742399, -24.098820056901992 ], [ -54.639442793947751, -24.098622367871084 ], [ -54.639601607577099, -24.098622367871084 ], [ -54.639803734014443, -24.098740981326241 ], [ -54.639976985246449, -24.09891231167866 ], [ -54.640135798875782, -24.099096821032678 ], [ -54.640438988531791, -24.099320867748112 ], [ -54.640771053393159, -24.09947901813484 ], [ -54.641020149379685, -24.099617975100784 ], [ -54.6411347005103, -24.099592688604591 ], [ -54.641313365843303, -24.099508671310517 ], [ -54.641704629781906, -24.099348592428573 ], [ -54.641651747155912, -24.099254971696002 ], [ -54.640754725636022, -24.097115056971536 ] ] ] ] } },
{ "type": "Feature", "properties": { "ZG": 2, "Area (ha)": 4.59 }, "geometry": { "type": "MultiPolygon", "coordinates": [ [ [ [ -54.64854837478611, -24.097153949575091 ], [ -54.648546604779675, -24.097154517273989 ], [ -54.648538470188186, -24.09715511132983 ], [ -54.648501487271339, -24.097157812131432 ], [ -54.648474416766334, -24.097152869845235 ], [ -54.648436518059349, -24.097136395556564 ], [ -54.648404033453332, -24.097114978978144 ], [ -54.648362525345682, -24.097073793240323 ], [ -54.648315603137014, -24.096981537139559 ], [ -54.648259657426678, -24.096897518132838 ], [ -54.64818205531234, -24.096790435005197 ], [ -54.648099039096991, -24.096683351788045 ], [ -54.647976319474338, -24.096516960765342 ], [ -54.647942030167997, -24.09647742227272 ], [ -54.647902326760651, -24.096426351701684 ], [ -54.64788608445766, -24.096395050373889 ], [ -54.647844576349989, -24.096342332330863 ], [ -54.647804872942658, -24.096299498904898 ], [ -54.647779607137977, -24.096255018024333 ], [ -54.647752536632979, -24.096202299923672 ], [ -54.647729075528645, -24.096151229242952 ], [ -54.647682153319977, -24.096086979002834 ], [ -54.647649668713981, -24.096042498048483 ], [ -54.647624402909315, -24.095999664522285 ], [ -54.64757928540098, -24.09594200398363 ], [ -54.647519730289979, -24.095874458748209 ], [ -54.647481831582972, -24.095808560923231 ], [ -54.647048703502918, -24.095217126426775 ], [ -54.646972906088919, -24.09513475371762 ], [ -54.646940421482924, -24.095096862253616 ], [ -54.64691696037859, -24.095078740245143 ], [ -54.646884475772595, -24.09505897077841 ], [ -54.646866428769258, -24.095032611484712 ], [ -54.646851991166585, -24.09500625218557 ], [ -54.646844772365249, -24.094983187794391 ], [ -54.646837553563913, -24.094968360683566 ], [ -54.646817701860243, -24.094945296285559 ], [ -54.646808678358582, -24.094932116627685 ], [ -54.64679965485692, -24.094905757307881 ], [ -54.646796045456249, -24.094884340356543 ], [ -54.646353893874561, -24.094315966108933 ], [ -54.646146353336221, -24.094047428993147 ], [ -54.645096017742141, -24.092643777976651 ], [ -54.644918619937691, -24.092401860762124 ], [ -54.644755831729412, -24.092559756125272 ], [ -54.644596579251655, -24.092758979570593 ], [ -54.64488577015338, -24.092994692172489 ], [ -54.645015708577382, -24.093152850369055 ], [ -54.645203397412068, -24.093482345984853 ], [ -54.645376648644067, -24.093825020526424 ], [ -54.645521024670735, -24.094088615703974 ], [ -54.645650963094759, -24.094418108913288 ], [ -54.645663338178146, -24.09454802300958 ], [ -54.645881964737427, -24.09474760127523 ], [ -54.645997465558779, -24.095037553852784 ], [ -54.646127403982774, -24.095406583456938 ], [ -54.64627178000945, -24.095775611998125 ], [ -54.646488344049466, -24.096157819009456 ], [ -54.646878159321481, -24.096592742842169 ], [ -54.647412350620186, -24.097040844640624 ], [ -54.64745840098886, -24.097219502944533 ], [ -54.647736294329974, -24.097227004118022 ], [ -54.64825243862532, -24.097235241256794 ], [ -54.648507216856238, -24.097213437320878 ], [ -54.648512315473418, -24.097213000980922 ], [ -54.648521749713112, -24.097211077004623 ], [ -54.648597136389093, -24.097195702985882 ], [ -54.648703613708761, -24.09716357813177 ], [ -54.648817309829781, -24.097109212978175 ], [ -54.649025752718195, -24.096970828833236 ], [ -54.64922066035421, -24.096774784386753 ], [ -54.649418275040723, -24.096597685149895 ], [ -54.64953648853961, -24.096482835694601 ], [ -54.649530166461389, -24.096472479960276 ], [ -54.649512119458059, -24.096467537647644 ], [ -54.649499486555726, -24.096472479960276 ], [ -54.649488658353718, -24.096482364584965 ], [ -54.649470611350381, -24.096507076143332 ], [ -54.649445345545722, -24.096531787696915 ], [ -54.649418275040723, -24.096554851809309 ], [ -54.649380376333717, -24.096581210789815 ], [ -54.649342477626703, -24.096596037713965 ], [ -54.649297360118382, -24.096622396685998 ], [ -54.649236000307042, -24.096688294092342 ], [ -54.649174640495701, -24.096759133766369 ], [ -54.649006803364692, -24.096861274622743 ], [ -54.648979732859715, -24.096869511785027 ], [ -54.648959881156031, -24.096887633540202 ], [ -54.648943638853034, -24.096920582179411 ], [ -54.648902130745377, -24.096970005122301 ], [ -54.648867841439035, -24.09699471658659 ], [ -54.648831747432361, -24.097016133185143 ], [ -54.648786629924032, -24.09703754978009 ], [ -54.6487360983147, -24.097062261231361 ], [ -54.648696394907361, -24.097086972677868 ], [ -54.648656691500015, -24.097111684119607 ], [ -54.648613378692012, -24.097133100698592 ], [ -54.64854837478611, -24.097153949575091 ] ] ] ] } },
{ "type": "Feature", "properties": { "ZG": 24, "Area (ha)": 4.58 }, "geometry": { "type": "MultiPolygon", "coordinates": [ [ [ [ -54.640928534302454, -24.100422917167283 ], [ -54.640734959386528, -24.100406088479605 ], [ -54.64046064493585, -24.100392909383558 ], [ -54.640236862094504, -24.100406088479605 ], [ -54.640020298054488, -24.10046539439503 ], [ -54.639868703226497, -24.10053128982441 ], [ -54.63975320240516, -24.100636722440914 ], [ -54.639644920385145, -24.100821229310924 ], [ -54.639608826378485, -24.100985967363147 ], [ -54.639616045179814, -24.101177063238246 ], [ -54.639782077610477, -24.101394516818292 ], [ -54.639868703226497, -24.101486769740696 ], [ -54.640027516855824, -24.101625148999734 ], [ -54.640106923670494, -24.101763528109238 ], [ -54.640193549286501, -24.102007338557478 ], [ -54.64019857117551, -24.102231958197816 ], [ -54.640426355629259, -24.102311689124427 ], [ -54.640542758800763, -24.102343812687394 ], [ -54.640984008032277, -24.102581032595349 ], [ -54.641208693223788, -24.102729294814679 ], [ -54.641252908381951, -24.102741649991867 ], [ -54.641276369486292, -24.102756476202934 ], [ -54.641290807088957, -24.10276388930783 ], [ -54.641314268193298, -24.102777068159899 ], [ -54.641323291694953, -24.102793541723095 ], [ -54.641338631647777, -24.102814957352056 ], [ -54.641704985815466, -24.103020876678677 ], [ -54.641769955027456, -24.103043939622644 ], [ -54.641797263317336, -24.103050616590178 ], [ -54.641752810374534, -24.102918740734172 ], [ -54.64181056078521, -24.102694700312313 ], [ -54.641998249619881, -24.102536553896201 ], [ -54.64218713188621, -24.102474977159687 ], [ -54.642193157255917, -24.102455421414149 ], [ -54.642250907666586, -24.102244559088646 ], [ -54.642265345269266, -24.102106180498858 ], [ -54.642330314481271, -24.10184260181898 ], [ -54.642323095679927, -24.101664685903419 ], [ -54.642063218831922, -24.101341800832785 ], [ -54.641781685579907, -24.10115729471266 ], [ -54.641485714725235, -24.101065041552935 ], [ -54.641146431062531, -24.100959609289017 ], [ -54.640915429419863, -24.100781692146867 ], [ -54.640908210618527, -24.100478573483631 ], [ -54.640928534302454, -24.100422917167283 ] ], [ [ -54.641146431062502, -24.101927853107611 ], [ -54.641166282766164, -24.101970684651505 ], [ -54.641177110968172, -24.102008574082216 ], [ -54.641184329769509, -24.102036579306422 ], [ -54.641175306267833, -24.10205470033058 ], [ -54.641146431062502, -24.102079410813939 ], [ -54.641124774658493, -24.102086000275367 ], [ -54.641086875951508, -24.10208105817933 ], [ -54.641025516140161, -24.10205470033058 ], [ -54.640984008032483, -24.102021753012011 ], [ -54.640949718726162, -24.101987158318408 ], [ -54.640922648221149, -24.101950916248413 ], [ -54.640893773015826, -24.101913026800627 ], [ -54.640882944813818, -24.101878432077644 ], [ -54.640881140113493, -24.101850426818853 ], [ -54.640863093110156, -24.101822421553962 ], [ -54.640843241406486, -24.101804300496941 ], [ -54.640832413204485, -24.101791121544757 ], [ -54.640848655507476, -24.101786179437344 ], [ -54.640864897810488, -24.101786179437344 ], [ -54.64089738241649, -24.101786179437344 ], [ -54.64092806232216, -24.101781237329728 ], [ -54.640962351628495, -24.101777942591227 ], [ -54.641000250335487, -24.101777942591227 ], [ -54.641043563143505, -24.101801005759004 ], [ -54.641077852449826, -24.101827363659972 ], [ -54.641099508853834, -24.101850426818853 ], [ -54.641146431062502, -24.101927853107611 ] ] ] ] } },
{ "type": "Feature", "properties": { "ZG": 23, "Area (ha)": 4.76 }, "geometry": { "type": "MultiPolygon", "coordinates": [ [ [ [ -54.641921594993818, -24.099732696691543 ], [ -54.641803341983902, -24.099786669499544 ], [ -54.6415867779439, -24.09989210272898 ], [ -54.641225837877215, -24.100030483710881 ], [ -54.641016492638542, -24.1001820436624 ], [ -54.640908210618527, -24.100478573483631 ], [ -54.640915429419863, -24.100781692146867 ], [ -54.641146431062531, -24.100959609289017 ], [ -54.641485714725235, -24.101065041552935 ], [ -54.641781685579907, -24.10115729471266 ], [ -54.642063218831922, -24.101341800832785 ], [ -54.642323095679927, -24.101664685903419 ], [ -54.642330314481271, -24.10184260181898 ], [ -54.642265345269266, -24.102106180498858 ], [ -54.642250907666586, -24.102244559088646 ], [ -54.642193157255917, -24.102455421414149 ], [ -54.64218713188621, -24.102474977159687 ], [ -54.642402502494569, -24.102404765066925 ], [ -54.642777880163926, -24.102325691704269 ], [ -54.6431821330386, -24.102207081568736 ], [ -54.643586385913295, -24.102101650244943 ], [ -54.64407726440399, -24.101969860968143 ], [ -54.644481517278692, -24.101864429449066 ], [ -54.644813582140031, -24.101719460968628 ], [ -54.644914645358703, -24.101561313348267 ], [ -54.644882787193744, -24.101183261314763 ], [ -54.644828019742754, -24.101205480488463 ], [ -54.644366016457397, -24.101363628548199 ], [ -54.643774074748031, -24.101324091551579 ], [ -54.642763442561311, -24.100810109484801 ], [ -54.642128188043927, -24.100098438602657 ], [ -54.641924703238601, -24.099738199371266 ], [ -54.641921594993818, -24.099732696691543 ] ] ] ] } },
{ "type": "Feature", "properties": { "ZG": 25, "Area (ha)": 3.24 }, "geometry": { "type": "MultiPolygon", "coordinates": [ [ [ [ -54.64019857117551, -24.102231958197816 ], [ -54.640193549286501, -24.102007338557478 ], [ -54.640106923670494, -24.101763528109238 ], [ -54.640027516855824, -24.101625148999734 ], [ -54.639868703226497, -24.101486769740696 ], [ -54.639782077610477, -24.101394516818292 ], [ -54.639616045179814, -24.101177063238246 ], [ -54.639608826378485, -24.100985967363147 ], [ -54.639644920385145, -24.100821229310924 ], [ -54.63975320240516, -24.100636722440914 ], [ -54.639868703226497, -24.10053128982441 ], [ -54.640020298054488, -24.10046539439503 ], [ -54.640236862094504, -24.100406088479605 ], [ -54.64046064493585, -24.100392909383558 ], [ -54.640734959386528, -24.100406088479605 ], [ -54.640928534302454, -24.100422917167283 ], [ -54.641016492638542, -24.1001820436624 ], [ -54.641225837877215, -24.100030483710881 ], [ -54.6415867779439, -24.09989210272898 ], [ -54.641803341983902, -24.099786669499544 ], [ -54.641921594993818, -24.099732696691543 ], [ -54.641722858182135, -24.099380863068525 ], [ -54.641031832591288, -24.099670116258189 ], [ -54.640512078895256, -24.099780491768545 ], [ -54.639958035892903, -24.099889219790246 ], [ -54.639609728728537, -24.099974884227162 ], [ -54.639488813806203, -24.100009479464308 ], [ -54.639450915099196, -24.100019363816056 ], [ -54.639418430493201, -24.100027600775267 ], [ -54.639402188190211, -24.100030895558803 ], [ -54.63937872708587, -24.100029248167051 ], [ -54.639361501298225, -24.100022368792438 ], [ -54.63903132227172, -24.100230229805106 ], [ -54.638988009463716, -24.10024340891788 ], [ -54.63887011123267, -24.100267324766591 ], [ -54.638858071039721, -24.100269767139395 ], [ -54.638713695013031, -24.100322483566117 ], [ -54.638569318986363, -24.100454274538027 ], [ -54.638464289773829, -24.100615746261578 ], [ -54.638729937315865, -24.100888360092707 ], [ -54.638781607835412, -24.100965501132862 ], [ -54.638923040251548, -24.101176651393935 ], [ -54.63907463507956, -24.10139410497467 ], [ -54.639152237193898, -24.101459999926242 ], [ -54.639184721799893, -24.101548958057098 ], [ -54.639219011106228, -24.101581905497294 ], [ -54.639260519213899, -24.101603321328863 ], [ -54.639289394419229, -24.101641210868259 ], [ -54.639309246122899, -24.10167415828473 ], [ -54.639406699940871, -24.101764763636272 ], [ -54.639466255051893, -24.101840542608361 ], [ -54.639505958459225, -24.101893258388579 ], [ -54.639643115684557, -24.102003631983134 ], [ -54.639755007105236, -24.102059642427569 ], [ -54.639877726727896, -24.102112358117619 ], [ -54.639922844236246, -24.102130479131052 ], [ -54.640076243764575, -24.102191431611981 ], [ -54.640121361273124, -24.102206284891533 ], [ -54.640186330484923, -24.102227673613918 ], [ -54.64019857117551, -24.102231958197816 ] ] ] ] } },
{ "type": "Feature", "properties": { "ZG": 20, "Area (ha)": 3.7 }, "geometry": { "type": "MultiPolygon", "coordinates": [ [ [ [ -54.644315271786908, -24.101907787247701 ], [ -54.644402110464043, -24.101934854418641 ], [ -54.644871332550736, -24.101994159626187 ], [ -54.645419961452092, -24.102079822655277 ], [ -54.646076694910228, -24.102023796565049 ], [ -54.646358405625463, -24.101890787336973 ], [ -54.64669047048681, -24.101706282007719 ], [ -54.647152473772167, -24.101350449550683 ], [ -54.647354600209503, -24.101100048340168 ], [ -54.647874353905529, -24.100559707217915 ], [ -54.648112541023757, -24.100285563010324 ], [ -54.647657789865526, -24.100335662669416 ], [ -54.647181348977497, -24.100454274538027 ], [ -54.646878159321474, -24.100506990888814 ], [ -54.646531656857462, -24.100559707217915 ], [ -54.646055215969426, -24.100586065374326 ], [ -54.645650963054671, -24.100586065374326 ], [ -54.645607650286792, -24.100625602598761 ], [ -54.645318898233434, -24.100902362828158 ], [ -54.644957958166756, -24.101152764425162 ], [ -54.644882787193744, -24.101183261314763 ], [ -54.644914645358703, -24.101561313348267 ], [ -54.644813582140031, -24.101719460968628 ], [ -54.644481517278692, -24.101864429449066 ], [ -54.644315271786908, -24.101907787247701 ] ] ] ] } },
{ "type": "Feature", "properties": { "ZG": 9, "Area (ha)": 5.78 }, "geometry": { "type": "MultiPolygon", "coordinates": [ [ [ [ -54.642142625646606, -24.098897073170999 ], [ -54.641940499209234, -24.098444447482422 ], [ -54.641781685579886, -24.097825019016259 ], [ -54.641705619234351, -24.097485547790757 ], [ -54.641723935169267, -24.09707173395315 ], [ -54.641882748798608, -24.096155759707482 ], [ -54.642157063249279, -24.095042084356599 ], [ -54.642326937172925, -24.094566860328566 ], [ -54.642126722805109, -24.094590292409034 ], [ -54.641796123182566, -24.094628984122537 ], [ -54.641261931883882, -24.094773960627553 ], [ -54.640771053393188, -24.094984835251104 ], [ -54.640511176545168, -24.095156170627163 ], [ -54.640207986889152, -24.095459301885029 ], [ -54.640135798875825, -24.09568335496246 ], [ -54.6402801749025, -24.096170998541208 ], [ -54.640568926955844, -24.096671819744014 ], [ -54.641651747155912, -24.099254971696002 ], [ -54.641704629781906, -24.099348592428573 ], [ -54.641968671031464, -24.099240564512257 ], [ -54.642114652791356, -24.099180838596826 ], [ -54.642269144105128, -24.099109820235217 ], [ -54.642142625646606, -24.098897073170999 ] ] ] ] } },
{ "type": "Feature", "properties": { "ZG": 18, "Area (ha)": 3.66 }, "geometry": { "type": "MultiPolygon", "coordinates": [ [ [ [ -54.644725598481259, -24.099074696797786 ], [ -54.6446800343154, -24.099149126091355 ], [ -54.644535658288724, -24.099320455897857 ], [ -54.644441813871389, -24.099386351916262 ], [ -54.644189155824705, -24.09949837506975 ], [ -54.643820996956705, -24.099649935650881 ], [ -54.643503369698017, -24.099860802248049 ], [ -54.643357261023937, -24.100102315348778 ], [ -54.643737980741349, -24.100317129554981 ], [ -54.643922850897134, -24.100357388153281 ], [ -54.644842457345405, -24.100557647986665 ], [ -54.645720102347497, -24.100522952904914 ], [ -54.645910839942808, -24.100348841771336 ], [ -54.646199591996151, -24.100085259474952 ], [ -54.646611630304818, -24.099810791396322 ], [ -54.646488344049466, -24.099670116258249 ], [ -54.64635840562547, -24.099446070153704 ], [ -54.646286217612136, -24.099222023657251 ], [ -54.646127403982796, -24.099024335246725 ], [ -54.645867527134783, -24.099011156008508 ], [ -54.645665400697432, -24.099050693719089 ], [ -54.645448836657415, -24.099156127554313 ], [ -54.645246710220071, -24.099248382088952 ], [ -54.644957958166735, -24.099235202873789 ], [ -54.644726956524053, -24.099077052186022 ], [ -54.644725598481259, -24.099074696797786 ] ] ] ] } },
{ "type": "Feature", "properties": { "ZG": 19, "Area (ha)": 3.53 }, "geometry": { "type": "MultiPolygon", "coordinates": [ [ [ [ -54.64233657452943, -24.099183743557539 ], [ -54.642326101850323, -24.099122287181544 ], [ -54.642276122130298, -24.099144326847696 ], [ -54.642055097680363, -24.099241792481465 ], [ -54.641722858182135, -24.099380863068525 ], [ -54.642128188043927, -24.100098438602657 ], [ -54.642763442561311, -24.100810109484801 ], [ -54.643774074748031, -24.101324091551579 ], [ -54.644366016457397, -24.101363628548199 ], [ -54.644828019742754, -24.101205480488463 ], [ -54.644957958166756, -24.101152764425162 ], [ -54.645318898233434, -24.100902362828158 ], [ -54.645415918876495, -24.100809371436 ], [ -54.645607650286792, -24.100625602598761 ], [ -54.645720102347497, -24.100522952904914 ], [ -54.644842457345405, -24.100557647986665 ], [ -54.643922850897134, -24.100357388153281 ], [ -54.643737980741349, -24.100317129554981 ], [ -54.642821192971986, -24.099799848657977 ], [ -54.64249273751129, -24.099453895299934 ], [ -54.642348361484622, -24.099252912443795 ], [ -54.64233657452943, -24.099183743557539 ] ] ] ] } },
{ "type": "Feature", "properties": { "ZG": 6, "Area (ha)": 3.49 }, "geometry": { "type": "MultiPolygon", "coordinates": [ [ [ [ -54.642977402022517, -24.093163070528608 ], [ -54.642896990385978, -24.093289179282877 ], [ -54.64249273751129, -24.094185404422124 ], [ -54.642344536853209, -24.094564800550692 ], [ -54.642359189686601, -24.094563085656926 ], [ -54.642679158185253, -24.094469616633564 ], [ -54.642691254547941, -24.094490597305619 ], [ -54.642734567355937, -24.09472783175741 ], [ -54.642821192971937, -24.094925526798324 ], [ -54.642936693793281, -24.095123221534191 ], [ -54.643109945025301, -24.095281377103234 ], [ -54.643326509065304, -24.095386814040811 ], [ -54.643389062716231, -24.095392888844234 ], [ -54.643384259476001, -24.095353865007105 ], [ -54.643629698721341, -24.094576265352746 ], [ -54.644366016457397, -24.093047411593009 ], [ -54.644470219797533, -24.092917054133409 ], [ -54.644452642073368, -24.092816763967981 ], [ -54.644351578854703, -24.092592705877522 ], [ -54.644019513993335, -24.092421367073399 ], [ -54.643745199542657, -24.092447726904339 ], [ -54.643629698721313, -24.092619065673219 ], [ -54.643528635502648, -24.092711324915406 ], [ -54.643456447489314, -24.092764044452547 ], [ -54.64341313468131, -24.092764044452547 ], [ -54.643312071462645, -24.092724504801719 ], [ -54.643272188426053, -24.09270076000087 ], [ -54.642977402022517, -24.093163070528608 ] ] ] ] } },
{ "type": "Feature", "properties": { "ZG": 8, "Area (ha)": 2.8 }, "geometry": { "type": "MultiPolygon", "coordinates": [ [ [ [ -54.64153085527623, -24.094700976335904 ], [ -54.641561512139276, -24.094589033181819 ], [ -54.641568730940591, -24.094490185439874 ], [ -54.641568730940591, -24.094213411356701 ], [ -54.6415037617286, -24.093989355708608 ], [ -54.64129441648992, -24.09383119854461 ], [ -54.641215009675257, -24.093837788430342 ], [ -54.641070633648589, -24.094035484844657 ], [ -54.64096957042991, -24.094213411356701 ], [ -54.640868507211245, -24.094351798473035 ], [ -54.640760225191237, -24.094503365143215 ], [ -54.640659161972565, -24.094602212874985 ], [ -54.640594192760553, -24.094621982412189 ], [ -54.640399285124545, -24.094648341790382 ], [ -54.640175502283199, -24.09456267379143 ], [ -54.640074439064541, -24.094397927478582 ], [ -54.640051631785646, -24.094338670003516 ], [ -54.640032028606463, -24.094354681536274 ], [ -54.639992325199131, -24.094387630826908 ], [ -54.639954426492132, -24.09441563771728 ], [ -54.639934574788455, -24.094432112355829 ], [ -54.639911113684128, -24.094453529382765 ], [ -54.639891261980459, -24.094476593869295 ], [ -54.639811855165803, -24.094577089083632 ], [ -54.639772151758464, -24.094624865469356 ], [ -54.639754104755127, -24.094647929925056 ], [ -54.639730643650793, -24.094662757072946 ], [ -54.639696354344466, -24.094680879140281 ], [ -54.639579048822789, -24.094794553867739 ], [ -54.639508665509787, -24.094888459001304 ], [ -54.639458133900447, -24.094929645441685 ], [ -54.639423844594106, -24.094947767471258 ], [ -54.639385945887106, -24.094969184411998 ], [ -54.639362484782765, -24.09499224880571 ], [ -54.639342633079103, -24.095016960651492 ], [ -54.639335414277767, -24.095043319948424 ], [ -54.639335414277767, -24.095072974150995 ], [ -54.63932819547643, -24.095119102896891 ], [ -54.639301124971432, -24.095153699445408 ], [ -54.639270445065769, -24.095165231626179 ], [ -54.63923254635877, -24.095171821443301 ], [ -54.639198257052428, -24.095176763805902 ], [ -54.639178405348765, -24.095183353622438 ], [ -54.63914953014342, -24.095221245060852 ], [ -54.639135092540762, -24.09524925176899 ], [ -54.639113436136753, -24.095292085546092 ], [ -54.639097193833763, -24.095321739691073 ], [ -54.639075537429768, -24.095369515799099 ], [ -54.639043052823759, -24.095422234242466 ], [ -54.639001544716081, -24.095453535807948 ], [ -54.63896725540976, -24.095494722066665 ], [ -54.638954622507413, -24.095539203211192 ], [ -54.638916723800413, -24.095664409312914 ], [ -54.638918528500746, -24.095722069976517 ], [ -54.638918528500746, -24.09580444230804 ], [ -54.638914919100081, -24.095860455463235 ], [ -54.638914919100081, -24.095925859017598 ], [ -54.639060197477043, -24.095986484972972 ], [ -54.63927676151706, -24.096177588306603 ], [ -54.639370605934403, -24.096348922087504 ], [ -54.639375828319544, -24.096371805149499 ], [ -54.639486106755754, -24.096276434746621 ], [ -54.639875922027763, -24.096026023617107 ], [ -54.640150236478455, -24.095775611998125 ], [ -54.640159225952068, -24.095762482110935 ], [ -54.640135798875825, -24.09568335496246 ], [ -54.640207986889152, -24.095459301885029 ], [ -54.640511176545168, -24.095156170627163 ], [ -54.640771053393188, -24.094984835251104 ], [ -54.641261931883882, -24.094773960627553 ], [ -54.64153085527623, -24.094700976335904 ] ] ] ] } },
{ "type": "Feature", "properties": { "ZG": 7, "Area (ha)": 4.8 }, "geometry": { "type": "MultiPolygon", "coordinates": [ [ [ [ -54.640051631785646, -24.094338670003516 ], [ -54.640074439064541, -24.094397927478582 ], [ -54.640175502283199, -24.09456267379143 ], [ -54.640399285124545, -24.094648341790382 ], [ -54.640594192760553, -24.094621982412189 ], [ -54.640659161972565, -24.094602212874985 ], [ -54.640760225191237, -24.094503365143215 ], [ -54.640868507211245, -24.094351798473035 ], [ -54.64096957042991, -24.094213411356701 ], [ -54.641070633648589, -24.094035484844657 ], [ -54.641215009675257, -24.093837788430342 ], [ -54.64129441648992, -24.09383119854461 ], [ -54.6415037617286, -24.093989355708608 ], [ -54.641568730940591, -24.094213411356701 ], [ -54.641568730940591, -24.094490185439874 ], [ -54.641561512139276, -24.094589033181819 ], [ -54.64153085527623, -24.094700976335904 ], [ -54.641796123182566, -24.094628984122537 ], [ -54.642344536853209, -24.094564800550692 ], [ -54.64249273751129, -24.094185404422124 ], [ -54.642896990385978, -24.093289179282877 ], [ -54.642977402022517, -24.093163070528608 ], [ -54.643272188426053, -24.09270076000087 ], [ -54.642980006601277, -24.092526806364596 ], [ -54.642806755369278, -24.092368647395254 ], [ -54.642647941739938, -24.092131408575224 ], [ -54.642561316123917, -24.091986429080077 ], [ -54.642474690507918, -24.091683289605605 ], [ -54.642464736504124, -24.091644922430572 ], [ -54.642412428346255, -24.091719534580442 ], [ -54.642394381342932, -24.09173930456242 ], [ -54.642367310837933, -24.091780492015115 ], [ -54.642343849733599, -24.091813441967734 ], [ -54.642322193329591, -24.091831564438074 ], [ -54.642300536925582, -24.091839801923733 ], [ -54.642286099322924, -24.091857924390339 ], [ -54.642266247619261, -24.09188922682662 ], [ -54.642242786514906, -24.091917234263114 ], [ -54.642222934811258, -24.091932061727018 ], [ -54.642201278407249, -24.091941946702015 ], [ -54.642172403201926, -24.091956774163044 ], [ -54.642147137397245, -24.091979839099039 ], [ -54.642130895094255, -24.092009494010647 ], [ -54.642120066892247, -24.092047386387705 ], [ -54.64210201988891, -24.092085278753562 ], [ -54.642069535282907, -24.092113286147221 ], [ -54.642037050676912, -24.092133056068462 ], [ -54.642011784872238, -24.092151178493577 ], [ -54.641993737868901, -24.092167653423292 ], [ -54.641968472064235, -24.092194013306425 ], [ -54.64193598745824, -24.092241790580768 ], [ -54.641928768656911, -24.092259912990517 ], [ -54.641843947741236, -24.092401597196552 ], [ -54.641744689222911, -24.09249715157263 ], [ -54.641699571714561, -24.092579525977559 ], [ -54.641643626004232, -24.092609180750372 ], [ -54.641618894923731, -24.092631757418332 ], [ -54.641519101681226, -24.092722857315927 ], [ -54.641293514139541, -24.092930440349274 ], [ -54.641272760085698, -24.092988102243297 ], [ -54.641244787230534, -24.093011990734645 ], [ -54.641222228476359, -24.093024346849116 ], [ -54.641200572072371, -24.093039174184909 ], [ -54.641151845163357, -24.093086951144105 ], [ -54.64098220333203, -24.093262407755244 ], [ -54.640873018961855, -24.093395029729102 ], [ -54.64084414375651, -24.093437040387837 ], [ -54.640826096753173, -24.093461752533603 ], [ -54.640804440349186, -24.0934798747708 ], [ -54.640790905096672, -24.093502939432618 ], [ -54.640786393345842, -24.093521061663999 ], [ -54.640776467494014, -24.093540007630413 ], [ -54.640752104039521, -24.09356801470609 ], [ -54.640728642935166, -24.093585313190928 ], [ -54.640706986531178, -24.093604259147863 ], [ -54.640688037177675, -24.093622381364899 ], [ -54.640627579716501, -24.093685809104354 ], [ -54.640587876309162, -24.093769830217379 ], [ -54.640510274194824, -24.093840671505149 ], [ -54.640466961386828, -24.09389668551891 ], [ -54.640441695582147, -24.093911512753763 ], [ -54.640412820376824, -24.093923045046331 ], [ -54.640398382774144, -24.09391810263536 ], [ -54.640351460565476, -24.093974116615257 ], [ -54.640244983245815, -24.094128978667587 ], [ -54.640185428134799, -24.094199819756764 ], [ -54.640167381131477, -24.09422947415457 ], [ -54.640131287124809, -24.094273955738398 ], [ -54.640087974316792, -24.09431019998047 ], [ -54.640066317912805, -24.094326674632569 ], [ -54.640051631785646, -24.094338670003516 ] ] ] ] } },
{ "type": "Feature", "properties": { "ZG": 13, "Area (ha)": 2.87 }, "geometry": { "type": "MultiPolygon", "coordinates": [ [ [ [ -54.643357261023937, -24.100102315348778 ], [ -54.643503369698017, -24.099860802248049 ], [ -54.643820996956705, -24.099649935650881 ], [ -54.644189155824705, -24.09949837506975 ], [ -54.644441813871389, -24.099386351916262 ], [ -54.644535658288724, -24.099320455897857 ], [ -54.6446800343154, -24.099149126091355 ], [ -54.644725598481259, -24.099074696797786 ], [ -54.644582580497385, -24.098826646531087 ], [ -54.644597018100043, -24.098549881816634 ], [ -54.644755831729384, -24.098378550979451 ], [ -54.644887173043053, -24.098233415532636 ], [ -54.644871332550736, -24.098226988893984 ], [ -54.644619954582289, -24.098033750878098 ], [ -54.644255929737007, -24.098213809573679 ], [ -54.643541268404945, -24.098569650744587 ], [ -54.643340946667948, -24.098656139768732 ], [ -54.643128894378755, -24.098760750224688 ], [ -54.642971885449725, -24.098828293938261 ], [ -54.642641625288711, -24.098983150122727 ], [ -54.642326101850323, -24.099122287181544 ], [ -54.64233657452943, -24.099183743557539 ], [ -54.642348361484622, -24.099252912443795 ], [ -54.64249273751129, -24.099453895299934 ], [ -54.642821192971986, -24.099799848657977 ], [ -54.643357261023937, -24.100102315348778 ] ] ] ] } },
{ "type": "Feature", "properties": { "ZG": 11, "Area (ha)": 2.42 }, "geometry": { "type": "MultiPolygon", "coordinates": [ [ [ [ -54.644567649416601, -24.096567960462146 ], [ -54.644532048888074, -24.096473715538469 ], [ -54.644517611285401, -24.09638145900557 ], [ -54.644503173682729, -24.096269433126295 ], [ -54.644488736080056, -24.096137637848781 ], [ -54.644503173682729, -24.095531377825868 ], [ -54.644553705292068, -24.095037141988772 ], [ -54.644569811635002, -24.094909715905843 ], [ -54.644568142894691, -24.094912347138415 ], [ -54.644423766868016, -24.095136401172404 ], [ -54.644351578854675, -24.095307736345774 ], [ -54.644308266046671, -24.095334095582878 ], [ -54.643889575569325, -24.095307736345774 ], [ -54.643673011529309, -24.095268197479946 ], [ -54.643437669935196, -24.09518465019978 ], [ -54.643384259476001, -24.095353865007105 ], [ -54.643528635502662, -24.096526845386645 ], [ -54.644048389198709, -24.097594379992284 ], [ -54.644230100837554, -24.09773406445537 ], [ -54.644394891662692, -24.09759437999233 ], [ -54.644553705292019, -24.097357150848755 ], [ -54.64453926768936, -24.097106741831723 ], [ -54.644510392484015, -24.096922229611216 ], [ -54.644510392484015, -24.096750896597083 ], [ -54.644567649416601, -24.096567960462146 ] ] ] ] } }
]
}
